HAWK-7B                 
1 56193U 23054R   26190.71116553  .00002974  00000+0  11290-3 0  9992
2 56193  97.2702  75.7478 0001943  26.8388 333.2952 15.27594208180462
HAWK-7C                 
1 56200U 23054Y   26191.10407944  .00003980  00000+0  15019-3 0  9993
2 56200  97.2679  76.8926 0001490  12.3347 347.7929 15.27600583180521
HAWK-8A                 
1 59443U 24066B   26191.30073425  .00000785  00000+0  82031-4 0  9993
2 59443  45.5947 157.1267 0002619 199.2694 160.8088 14.99277997123302
HAWK-8B                 
1 59445U 24066D   26191.03466246  .00005038  00000+0  42520-3 0  9996
2 59445  45.6156 160.4732 0002598 200.1581 159.9198 14.99280875123258
HAWK-9A                 
1 59446U 24066E   26190.39089194  .00001032  00000+0  10220-3 0  9990
2 59446  45.6087 162.4649 0002239 178.3686 181.7203 14.99204334123161
HAWK-9C                 
1 59448U 24066G   26190.99088669  .00000942  00000+0  94854-4 0  9999
2 59448  45.6047 158.4639 0002111 161.7845 198.3113 14.99208578123253
HAWK-8C                 
1 59449U 24066H   26191.30067597  .00001203  00000+0  11573-3 0  9990
2 59449  45.6068 158.1200 0002445 210.7179 149.3559 14.99283156123292
HAWK-9B                 
1 59450U 24066J   26191.25745308  .00000953  00000+0  95753-4 0  9993
2 59450  45.6129 158.9211 0002328 157.1131 202.9855 14.99207538123299
HAWK-10A                
1 60540U 24149CA  26191.17013613  .00001196  00000+0  11013-3 0  9991
2 60540  97.6893 266.6868 0003607  23.8016 336.3371 14.96585814103424
HAWK-10B                
1 60545U 24149CF  26191.16999631  .00001087  00000+0  10047-3 0  9993
2 60545  97.6812 266.0185 0005946  32.5219 327.6368 14.96585260103420
HAWK-10C                
1 60575U 24149DM  26190.83602529  .00001031  00000+0  95556-4 0  9994
2 60575  97.6731 265.0063 0003161  14.0997 346.0312 14.96583877103372
HAWK-11B                
1 62379U 24247C   26191.27564898  .00004995  00000+0  17560-3 0  9992
2 62379  45.0130 163.1543 0003725 353.4639   6.6196 15.30623067 86549
HAWK-11C                
1 62381U 24247E   26190.62254468  .00004549  00000+0  16086-3 0  9999
2 62381  45.0015 166.0719 0004744 340.0518  20.0180 15.30613240 86445
HAWK-11A                
1 62382U 24247F   26191.27526931  .00004480  00000+0  15855-3 0  9996
2 62382  44.9915 161.8260 0004141 342.5606  17.5135 15.30620006 86543
HAWK-12C                
1 64621U 25138A   26190.84574837  .00002785  00000+0  13840-3 0  9992
2 64621  97.4353 192.9065 0015609  67.9229 292.3661 15.18379418 57301
HAWK-12B                
1 64622U 25138B   26190.84592159  .00002773  00000+0  13789-3 0  9999
2 64622  97.4474 193.5917 0014542  63.9150 296.3579 15.18378814 57304
